norad_id,name,regime,epoch,line1,line2,inclination,eccentricity,mean_motion,raan,arg_pericenter,mean_anomaly
43015,MIRATA,LEO,22048.59782927,1 43015U 17073C   22048.59782927  .00004450  00000-0  33600-3 0    18\,2 43015  97.6875 308.4297 0243648 214.3420 144.1839 14.82234666229503,97.6875,0.0243648,14.82234666,308.4297,214.342,144.1839
43015,MIRATA,LEO,22048.93537334,1 43015U 17073C   22048.93537334  .00003992  00000-0  30197-3 0    14\,2 43015  97.6874 308.7545 0243670 213.2296 145.3415 14.82236604229557,97.6874,0.024367,14.82236604,308.7545,213.2296,145.3415
43015,MIRATA,LEO,22049.27291652,1 43015U 17073C   22049.27291652  .00004067  00000-0  30747-3 0    17\,2 43015  97.6873 309.0793 0243681 212.1151 146.5021 14.82240118229602,97.6873,0.0243681,14.82240118,309.0793,212.1151,146.5021
43015,MIRATA,LEO,22049.67796767,1 43015U 17073C   22049.67796767  .00003998  00000-0  30235-3 0    12\,2 43015  97.6871 309.4690 0243700 210.7832 147.8900 14.82243791229668,97.6871,0.02437,14.82243791,309.469,210.7832,147.89
43015,MIRATA,LEO,22050.48806755,1 43015U 17073C   22050.48806755  .00003989  00000-0  30153-3 0    11\,2 43015  97.6869 310.2484 0243729 208.1160 150.6714 14.82251271229782,97.6869,0.0243729,14.82251271,310.2484,208.116,150.6714
43015,MIRATA,LEO,22050.69059198,1 43015U 17073C   22050.69059198  .00003977  00000-0  30063-3 0    12\,2 43015  97.6868 310.4432 0243739 207.4502 151.3663 14.82253165229818,97.6868,0.0243739,14.82253165,310.4432,207.4502,151.3663
43015,MIRATA,LEO,22051.50068779,1 43015U 17073C   22051.50068779  .00004025  00000-0  30402-3 0    10\,2 43015  97.6866 311.2225 0243778 204.7837 154.1509 14.82260264229930,97.6866,0.0243778,14.82260264,311.2225,204.7837,154.1509
43015,MIRATA,LEO,22051.70321144,1 43015U 17073C   22051.70321144  .00003959  00000-0  29912-3 0    19\,2 43015  97.6865 311.4174 0243788 204.1179 154.8466 14.82261759229960,97.6865,0.0243788,14.82261759,311.4174,204.1179,154.8466
43015,MIRATA,LEO,22052.64831961,1 43015U 17073C   22052.64831961  .00003865  00000-0  29199-3 0    19\,2 43015  97.6863 312.3264 0243834 201.0092 158.0971 14.82268418230104,97.6863,0.0243834,14.82268418,312.3264,201.0092,158.0971
43015,MIRATA,LEO,22053.12087216,1 43015U 17073C   22053.12087216  .00004558  00000-0  34328-3 0  3269\,2 43015  97.6862 312.7810 0243854 199.4549 159.7236 14.82273446230179,97.6862,0.0243854,14.82273446,312.781,199.4549,159.7236
43015,MIRATA,LEO,22053.59342291,1 43015U 17073C   22053.59342291  .00004648  00000-0  34985-3 0    16\,2 43015  97.6861 313.2354 0243876 197.9038 161.3474 14.82277665230245,97.6861,0.0243876,14.82277665,313.2354,197.9038,161.3474
43015,MIRATA,LEO,22053.66093017,1 43015U 17073C   22053.66093017  .00004651  00000-0  35007-3 0    13\,2 43015  97.6861 313.3003 0243878 197.6794 161.5823 14.82278233230258,97.6861,0.0243878,14.82278233,313.3003,197.6794,161.5823
43015,MIRATA,LEO,22054.47101518,1 43015U 17073C   22054.47101518  .00003958  00000-0  29864-3 0  3273\,2 43015  97.6860 314.0795 0243925 195.0176 164.3707 14.82283216230374,97.686,0.0243925,14.82283216,314.0795,195.0176,164.3707
43015,MIRATA,LEO,22054.60602875,1 43015U 17073C   22054.60602875  .00004077  00000-0  30741-3 0    18\,2 43015  97.6860 314.2093 0243933 194.5756 164.8339 14.82284849230395,97.686,0.0243933,14.82284849,314.2093,194.5756,164.8339
43015,MIRATA,LEO,22054.67353563,1 43015U 17073C   22054.67353563  .00004018  00000-0  30300-3 0    18\,2 43015  97.6860 314.2742 0243935 194.3533 165.0668 14.82285323230407,97.686,0.0243935,14.82285323,314.2742,194.3533,165.0668
43015,MIRATA,LEO,22055.28109576,1 43015U 17073C   22055.28109576  .00003857  00000-0  29101-3 0    16\,2 43015  97.6860 314.8586 0243963 192.3563 167.1602 14.82290741230491,97.686,0.0243963,14.82290741,314.8586,192.3563,167.1602
43015,MIRATA,LEO,22055.68613486,1 43015U 17073C   22055.68613486  .00003539  00000-0  26743-3 0  3288\,2 43015  97.6861 315.2482 0243991 191.0259 168.5552 14.82293702230557,97.6861,0.0243991,14.82293702,315.2482,191.0259,168.5552
43015,MIRATA,LEO,22056.42870476,1 43015U 17073C   22056.42870476  .00003118  00000-0  23618-3 0    14\,2 43015  97.6862 315.9624 0244041 188.5853 171.1152 14.82298840230667,97.6862,0.0244041,14.8229884,315.9624,188.5853,171.1152
43015,MIRATA,LEO,22056.69872973,1 43015U 17073C   22056.69872973  .00003261  00000-0  24671-3 0    16\,2 43015  97.6862 316.2222 0244055 187.6978 172.0464 14.82301175230705,97.6862,0.0244055,14.82301175,316.2222,187.6978,172.0464
43015,MIRATA,LEO,22057.50880315,1 43015U 17073C   22057.50880315  .00003157  00000-0  23891-3 0    13\,2 43015  97.6864 317.0013 0244116 185.0375 174.8380 14.82305956230826,97.6864,0.0244116,14.82305956,317.0013,185.0375,174.838
43015,MIRATA,LEO,22057.71132128,1 43015U 17073C   22057.71132128  .00003153  00000-0  23857-3 0    16\,2 43015  97.6864 317.1961 0244121 184.3721 175.5364 14.82307108230856,97.6864,0.0244121,14.82307108,317.1961,184.3721,175.5364
43015,MIRATA,LEO,22058.45388607,1 43015U 17073C   22058.45388607  .00003504  00000-0  26442-3 0    16\,2 43015  97.6866 317.9103 0244170 181.9359 178.0935 14.82311769230960,97.6866,0.024417,14.82311769,317.9103,181.9359,178.0935
43015,MIRATA,LEO,22058.65640278,1 43015U 17073C   22058.65640278  .00004278  00000-0  32157-3 0    12\,2 43015  97.6866 318.1051 0244168 181.2722 178.7903 14.82315160230993,97.6866,0.0244168,14.8231516,318.1051,181.2722,178.7903
43015,MIRATA,LEO,22059.19644755,1 43015U 17073C   22059.19644755  .00004223  00000-0  31739-3 0  3317\,2 43015  97.6867 318.6245 0244217 179.5019 180.6486 14.82318470231073,97.6867,0.0244217,14.8231847,318.6245,179.5019,180.6486
43015,MIRATA,LEO,22059.26395301,1 43015U 17073C   22059.26395301  .00004260  00000-0  32007-3 0    19\,2 43015  97.6867 318.6895 0244219 179.2804 180.8811 14.82319009231089,97.6867,0.0244219,14.82319009,318.6895,179.2804,180.8811
43015,MIRATA,LEO,22059.93900587,1 43015U 17073C   22059.93900587  .00004109  00000-0  30886-3 0    16\,2 43015  97.6866 319.3388 0244266 177.0681 183.2035 14.82323914231180,97.6866,0.0244266,14.82323914,319.3388,177.0681,183.2035
43015,MIRATA,LEO,22060.20902606,1 43015U 17073C   22060.20902606  .00004134  00000-0  31065-3 0  3327\,2 43015  97.6866 319.5986 0244284 176.1816 184.1340 14.82326514231229,97.6866,0.0244284,14.82326514,319.5986,176.1816,184.134
43015,MIRATA,LEO,22060.27653107,1 43015U 17073C   22060.27653107  .00004131  00000-0  31040-3 0    16\,2 43015  97.6866 319.6635 0244288 175.9604 184.3662 14.82327076231231,97.6866,0.0244288,14.82327076,319.6635,175.9604,184.3662
43015,MIRATA,LEO,22060.68156069,1 43015U 17073C   22060.68156069  .00004036  00000-0  30331-3 0    12\,2 43015  97.6865 320.0531 0244307 174.6334 185.7589 14.82330381231291,97.6865,0.0244307,14.82330381,320.0531,174.6334,185.7589
43015,MIRATA,LEO,22061.28910334,1 43015U 17073C   22061.28910334  .00003276  00000-0  24711-3 0    12\,2 43015  97.6865 320.6377 0244355 172.6408 187.8502 14.82334004231382,97.6865,0.0244355,14.82334004,320.6377,172.6408,187.8502
43015,MIRATA,LEO,22061.69413074,1 43015U 17073C   22061.69413074  .00002832  00000-0  21434-3 0    12\,2 43015  97.6863 321.0273 0244378 171.3138 189.2426 14.82336323231445,97.6863,0.0244378,14.82336323,321.0273,171.3138,189.2426
43015,MIRATA,LEO,22062.43667968,1 43015U 17073C   22062.43667968  .00003152  00000-0  23786-3 0    16\,2 43015  97.6861 321.7416 0244416 168.8802 191.7955 14.82341931231559,97.6861,0.0244416,14.82341931,321.7416,168.8802,191.7955
43015,MIRATA,LEO,22062.70669691,1 43015U 17073C   22062.70669691  .00003321  00000-0  25029-3 0    11\,2 43015  97.6861 322.0013 0244427 167.9961 192.7226 14.82344015231596,97.6861,0.0244427,14.82344015,322.0013,167.9961,192.7226
43015,MIRATA,LEO,22063.44924283,1 43015U 17073C   22063.44924283  .00003769  00000-0  28321-3 0  3358\,2 43015  97.6857 322.7156 0244482 165.5653 195.2712 14.82348940231701,97.6857,0.0244482,14.8234894,322.7156,165.5653,195.2712
43015,MIRATA,LEO,22063.51674640,1 43015U 17073C   22063.51674640  .00003356  00000-0  25274-3 0    11\,2 43015  97.6858 322.7806 0244495 165.3446 195.5026 14.82348782231712,97.6858,0.0244495,14.82348782,322.7806,165.3446,195.5026
43015,MIRATA,LEO,22063.71925840,1 43015U 17073C   22063.71925840  .00003360  00000-0  25301-3 0    10\,2 43015  97.6858 322.9754 0244508 164.6797 196.1994 14.82350006231748,97.6858,0.0244508,14.82350006,322.9754,164.6797,196.1994
43015,MIRATA,LEO,22064.25928859,1 43015U 17073C   22064.25928859  .00004945  00000-0  36963-3 0    19\,2 43015  97.6855 323.4948 0244536 162.9119 198.0516 14.82357286231823,97.6855,0.0244536,14.82357286,323.4948,162.9119,198.0516
43015,MIRATA,LEO,22064.52930289,1 43015U 17073C   22064.52930289  .00005211  00000-0  38915-3 0    15\,2 43015  97.6855 323.7545 0244549 162.0288 198.9767 14.82359910231868,97.6855,0.0244549,14.8235991,323.7545,162.0288,198.9767
43015,MIRATA,LEO,22064.66430981,1 43015U 17073C   22064.66430981  .00005279  00000-0  39413-3 0    12\,2 43015  97.6854 323.8844 0244551 161.5867 199.4396 14.82361285231884,97.6854,0.0244551,14.82361285,323.8844,161.5867,199.4396
43015,MIRATA,LEO,22065.27183750,1 43015U 17073C   22065.27183750  .00006944  00000-0  51650-3 0    16\,2 43015  97.6852 324.4687 0244572 159.5966 201.5230 14.82371983231972,97.6852,0.0244572,14.82371983,324.4687,159.5966,201.523
43015,MIRATA,LEO,22065.67685474,1 43015U 17073C   22065.67685474  .00006849  00000-0  50937-3 0    11\,2 43015  97.6851 324.8582 0244598 158.2668 202.9144 14.82376223232031,97.6851,0.0244598,14.82376223,324.8582,158.2668,202.9144
43015,MIRATA,LEO,22066.28437694,1 43015U 17073C   22066.28437694  .00005776  00000-0  43030-3 0    12\,2 43015  97.6848 325.4425 0244630 156.2796 204.9926 14.82382456232122,97.6848,0.024463,14.82382456,325.4425,156.2796,204.9926
43015,MIRATA,LEO,22066.68939007,1 43015U 17073C   22066.68939007  .00005303  00000-0  39544-3 0  3385\,2 43015  97.6847 325.8320 0244651 154.9526 206.3796 14.82386890232181,97.6847,0.0244651,14.8238689,325.832,154.9526,206.3796
